{
  "norad_id": 57944,
  "name": "STARLINK-30708",
  "history": [
    {
      "epoch": "2026-03-28T19:59:37.186656",
      "apogee_km": 476.08430000312455,
      "perigee_km": 474.3889124404177,
      "latitude_deg": -3.4399435102210494,
      "longitude_deg": 54.37465183995664,
      "semi_major_axis_km": 6853.373606221771,
      "eccentricity": 0.00012369,
      "inclination_deg": 53.1604,
      "raan_deg": 295.3367,
      "arg_perigee_deg": 95.5964,
      "mean_anomaly_deg": 264.5178,
      "mean_motion_rev_day": 15.30192787
    }
  ]
}