{"fetched_at":"2026-03-29T16:36:15Z","count":15609,"tles":[{"name":"STARLINK-30708","line1":"1 57944U 23148K   26087.83306929  .00000357  00000+0  24190-4 0  9994","line2":"2 57944  53.1604 295.3367 0001236  95.5964 264.5178 15.30192787141355","category":"Starlink"}]}